[{"OBJECT_NAME":"METEOR-M2 3","OBJECT_ID":"2023-091A","EPOCH":"2026-03-09T22:59:41.369280","MEAN_MOTION":14.24037691,"ECCENTRICITY":0.000511,"INCLINATION":98.6213,"RA_OF_ASC_NODE":125.9119,"ARG_OF_PERICENTER":98.6128,"MEAN_ANOMALY":261.563,"EPHEMERIS_TYPE":0,"CLASSIFICATION_TYPE":"U","NORAD_CAT_ID":57166,"ELEMENT_SET_NO":999,"REV_AT_EPOCH":14039,"BSTAR":2.3891208e-5,"MEAN_MOTION_DOT":1.2e-7,"MEAN_MOTION_DDOT":0},{"OBJECT_NAME":"METEOR 2-5 DEB","OBJECT_ID":"1979-095CS","EPOCH":"2026-03-08T14:57:12.295872","MEAN_MOTION":14.23551892,"ECCENTRICITY":0.00094832,"INCLINATION":81.1901,"RA_OF_ASC_NODE":302.9593,"ARG_OF_PERICENTER":133.5584,"MEAN_ANOMALY":226.6383,"EPHEMERIS_TYPE":0,"CLASSIFICATION_TYPE":"U","NORAD_CAT_ID":45510,"ELEMENT_SET_NO":999,"REV_AT_EPOCH":42818,"BSTAR":0.0014075366,"MEAN_MOTION_DOT":3.216e-5,"MEAN_MOTION_DDOT":0}]
